{
  "links" : {
    "next" : "https://api.nasa.gov/neo/rest/v1/feed?start_date=2015-04-16&end_date=2015-04-16&detailed=true&api_key=t0TVs3DtDT2H8Oy2Zy8m2eVrNsAVKAexjcZXUckd",
    "prev" : "https://api.nasa.gov/neo/rest/v1/feed?start_date=2015-04-14&end_date=2015-04-14&detailed=true&api_key=t0TVs3DtDT2H8Oy2Zy8m2eVrNsAVKAexjcZXUckd",
    "self" : "https://api.nasa.gov/neo/rest/v1/feed?start_date=2015-04-15&end_date=2015-04-15&detailed=true&api_key=t0TVs3DtDT2H8Oy2Zy8m2eVrNsAVKAexjcZXUckd"
  },
  "element_count" : 6,
  "near_earth_objects" : {
    "2015-04-15" : [ {
      "links" : {
        "self" : "https://api.nasa.gov/neo/rest/v1/neo/3717360?api_key=t0TVs3DtDT2H8Oy2Zy8m2eVrNsAVKAexjcZXUckd"
      },
      "neo_reference_id" : "3717360",
      "name" : "(2015 HR43)",
      "nasa_jpl_url" : "http://ssd.jpl.nasa.gov/sbdb.cgi?sstr=3717360",
      "absolute_magnitude_h" : 26.3,
      "estimated_diameter" : {
        "kilometers" : {
          "estimated_diameter_min" : 0.0146067964,
          "estimated_diameter_max" : 0.0326617897
        },
        "meters" : {
          "estimated_diameter_min" : 14.6067964271,
          "estimated_diameter_max" : 32.6617897446
        },
        "miles" : {
          "estimated_diameter_min" : 0.0090762397,
          "estimated_diameter_max" : 0.020295089
        },
        "feet" : {
          "estimated_diameter_min" : 47.92256199,
          "estimated_diameter_max" : 107.1581062656
        }
      },
      "is_potentially_hazardous_asteroid" : false,
      "close_approach_data" : [ {
        "close_approach_date" : "2015-04-15",
        "epoch_date_close_approach" : 1429081200000,
        "relative_velocity" : {
          "kilometers_per_second" : "13.8682020987",
          "kilometers_per_hour" : "49925.5275553477",
          "miles_per_hour" : "31021.7812745993"
        },
        "miss_distance" : {
          "astronomical" : "0.013900193",
          "lunar" : "5.4071750641",
          "kilometers" : "2079439.375",
          "miles" : "1292103.75"
        },
        "orbiting_body" : "Earth"
      } ],
      "orbital_data" : {
        "orbit_id" : "6",
        "orbit_determination_date" : "2017-04-06 08:34:06",
        "orbit_uncertainty" : "8",
        "minimum_orbit_intersection" : ".0130694",
        "jupiter_tisserand_invariant" : "4.298",
        "epoch_osculation" : "2457137.5",
        "eccentricity" : ".519376069103517",
        "semi_major_axis" : "1.544081980937009",
        "inclination" : "4.641246496020902",
        "ascending_node_longitude" : "214.0795580985089",
        "orbital_period" : "700.8159205352192",
        "perihelion_distance" : ".7421227513043737",
        "perihelion_argument" : "274.4144194863981",
        "aphelion_distance" : "2.346041210569644",
        "perihelion_time" : "2457077.584322188053",
        "mean_anomaly" : "30.77790241384356",
        "mean_motion" : ".5136869603719403",
        "equinox" : "J2000"
      }
    }, {
      "links" : {
        "self" : "https://api.nasa.gov/neo/rest/v1/neo/3179348?api_key=t0TVs3DtDT2H8Oy2Zy8m2eVrNsAVKAexjcZXUckd"
      },
      "neo_reference_id" : "3179348",
      "name" : "(2004 GD)",
      "nasa_jpl_url" : "http://ssd.jpl.nasa.gov/sbdb.cgi?sstr=3179348",
      "absolute_magnitude_h" : 23.7,
      "estimated_diameter" : {
        "kilometers" : {
          "estimated_diameter_min" : 0.0483676488,
          "estimated_diameter_max" : 0.1081533507
        },
        "meters" : {
          "estimated_diameter_min" : 48.3676488219,
          "estimated_diameter_max" : 108.1533506775
        },
        "miles" : {
          "estimated_diameter_min" : 0.0300542543,
          "estimated_diameter_max" : 0.0672033557
        },
        "feet" : {
          "estimated_diameter_min" : 158.6865169607,
          "estimated_diameter_max" : 354.8338390368
        }
      },
      "is_potentially_hazardous_asteroid" : false,
      "close_approach_data" : [ {
        "close_approach_date" : "2015-04-15",
        "epoch_date_close_approach" : 1429081200000,
        "relative_velocity" : {
          "kilometers_per_second" : "13.4448164174",
          "kilometers_per_hour" : "48401.3391027174",
          "miles_per_hour" : "30074.7098441302"
        },
        "miss_distance" : {
          "astronomical" : "0.1111367251",
          "lunar" : "43.2321853638",
          "kilometers" : "16625818",
          "miles" : "10330804"
        },
        "orbiting_body" : "Earth"
      } ],
      "orbital_data" : {
        "orbit_id" : "17",
        "orbit_determination_date" : "2017-04-06 09:12:58",
        "orbit_uncertainty" : "7",
        "minimum_orbit_intersection" : ".00709691",
        "jupiter_tisserand_invariant" : "5.742",
        "epoch_osculation" : "2458000.5",
        "eccentricity" : ".307743936109016",
        "semi_major_axis" : "1.06502186540257",
        "inclination" : "6.219566678457151",
        "ascending_node_longitude" : "26.5807378024219",
        "orbital_period" : "401.4543915568394",
        "perihelion_distance" : ".7372678445014162",
        "perihelion_argument" : "281.2682697976887",
        "aphelion_distance" : "1.392775886303723",
        "perihelion_time" : "2457999.008521969918",
        "mean_anomaly" : "1.337467224476838",
        "mean_motion" : ".896739474200097",
        "equinox" : "J2000"
      }
    }, {
      "links" : {
        "self" : "https://api.nasa.gov/neo/rest/v1/neo/3457388?api_key=t0TVs3DtDT2H8Oy2Zy8m2eVrNsAVKAexjcZXUckd"
      },
      "neo_reference_id" : "3457388",
      "name" : "(2009 HE)",
      "nasa_jpl_url" : "http://ssd.jpl.nasa.gov/sbdb.cgi?sstr=3457388",
      "absolute_magnitude_h" : 21.3,
      "estimated_diameter" : {
        "kilometers" : {
          "estimated_diameter_min" : 0.1460679643,
          "estimated_diameter_max" : 0.3266178974
        },
        "meters" : {
          "estimated_diameter_min" : 146.0679642714,
          "estimated_diameter_max" : 326.6178974458
        },
        "miles" : {
          "estimated_diameter_min" : 0.090762397,
          "estimated_diameter_max" : 0.2029508896
        },
        "feet" : {
          "estimated_diameter_min" : 479.2256199,
          "estimated_diameter_max" : 1071.581062656
        }
      },
      "is_potentially_hazardous_asteroid" : false,
      "close_approach_data" : [ {
        "close_approach_date" : "2015-04-15",
        "epoch_date_close_approach" : 1429081200000,
        "relative_velocity" : {
          "kilometers_per_second" : "28.6305928789",
          "kilometers_per_hour" : "103070.1343640202",
          "miles_per_hour" : "64043.7732107991"
        },
        "miss_distance" : {
          "astronomical" : "0.3984553047",
          "lunar" : "154.9991149902",
          "kilometers" : "59608064",
          "miles" : "37038732"
        },
        "orbiting_body" : "Earth"
      } ],
      "orbital_data" : {
        "orbit_id" : "14",
        "orbit_determination_date" : "2017-04-06 09:00:49",
        "orbit_uncertainty" : "1",
        "minimum_orbit_intersection" : ".0716932",
        "jupiter_tisserand_invariant" : "4.656",
        "epoch_osculation" : "2458000.5",
        "eccentricity" : ".4004669016498495",
        "semi_major_axis" : "1.300327589150498",
        "inclination" : "44.38928153745942",
        "ascending_node_longitude" : "200.9156157663656",
        "orbital_period" : "541.5986741693157",
        "perihelion_distance" : ".7795894283935796",
        "perihelion_argument" : "118.0154694382221",
        "aphelion_distance" : "1.821065749907416",
        "perihelion_time" : "2457743.706976744556",
        "mean_anomaly" : "170.6900197157041",
        "mean_motion" : ".6646988206759458",
        "equinox" : "J2000"
      }
    } ]
  }
}